[{"OBJECT_NAME":"HULIANWANG DIGUI-65","OBJECT_ID":"2025-174H","EPOCH":"2026-03-05T21:37:54.599232","MEAN_MOTION":13.24422368,"ECCENTRICITY":0.00012296,"INCLINATION":86.4843,"RA_OF_ASC_NODE":286.7968,"ARG_OF_PERICENTER":88.6143,"MEAN_ANOMALY":271.5132,"EPHEMERIS_TYPE":0,"CLASSIFICATION_TYPE":"U","NORAD_CAT_ID":65171,"ELEMENT_SET_NO":999,"REV_AT_EPOCH":2711,"BSTAR":8.4541089e-5,"MEAN_MOTION_DOT":5.1e-7,"MEAN_MOTION_DDOT":0},{"OBJECT_NAME":"HULIANWANG DIGUI-66","OBJECT_ID":"2025-174J","EPOCH":"2026-03-05T23:15:51.362208","MEAN_MOTION":13.24422034,"ECCENTRICITY":0.00012727,"INCLINATION":86.4878,"RA_OF_ASC_NODE":286.8402,"ARG_OF_PERICENTER":90.7851,"MEAN_ANOMALY":269.3428,"EPHEMERIS_TYPE":0,"CLASSIFICATION_TYPE":"U","NORAD_CAT_ID":65172,"ELEMENT_SET_NO":999,"REV_AT_EPOCH":2712,"BSTAR":0.00011578543,"MEAN_MOTION_DOT":6.4e-7,"MEAN_MOTION_DDOT":0},{"OBJECT_NAME":"HULIANWANG DIGUI-67","OBJECT_ID":"2025-174K","EPOCH":"2026-03-05T21:48:52.216416","MEAN_MOTION":13.24421612,"ECCENTRICITY":0.00012654,"INCLINATION":86.489,"RA_OF_ASC_NODE":286.8943,"ARG_OF_PERICENTER":88.8227,"MEAN_ANOMALY":271.3052,"EPHEMERIS_TYPE":0,"CLASSIFICATION_TYPE":"U","NORAD_CAT_ID":65173,"ELEMENT_SET_NO":999,"REV_AT_EPOCH":2708,"BSTAR":6.166475e-5,"MEAN_MOTION_DOT":4.1e-7,"MEAN_MOTION_DDOT":0},{"OBJECT_NAME":"HULIANWANG DIGUI-68","OBJECT_ID":"2025-178A","EPOCH":"2026-03-05T22:21:18.243360","MEAN_MOTION":13.24423868,"ECCENTRICITY":0.00020266,"INCLINATION":86.4942,"RA_OF_ASC_NODE":48.3642,"ARG_OF_PERICENTER":79.7015,"MEAN_ANOMALY":280.4348,"EPHEMERIS_TYPE":0,"CLASSIFICATION_TYPE":"U","NORAD_CAT_ID":65228,"ELEMENT_SET_NO":999,"REV_AT_EPOCH":2664,"BSTAR":1.368587e-6,"MEAN_MOTION_DOT":1.5e-7,"MEAN_MOTION_DDOT":0},{"OBJECT_NAME":"HULIANWANG DIGUI-69","OBJECT_ID":"2025-178B","EPOCH":"2026-03-05T22:10:52.589856","MEAN_MOTION":13.24417706,"ECCENTRICITY":0.00019621,"INCLINATION":86.4962,"RA_OF_ASC_NODE":48.4017,"ARG_OF_PERICENTER":80.98,"MEAN_ANOMALY":279.1556,"EPHEMERIS_TYPE":0,"CLASSIFICATION_TYPE":"U","NORAD_CAT_ID":65229,"ELEMENT_SET_NO":999,"REV_AT_EPOCH":2664,"BSTAR":7.215355e-6,"MEAN_MOTION_DOT":1.8e-7,"MEAN_MOTION_DDOT":0},{"OBJECT_NAME":"HULIANWANG DIGUI-70","OBJECT_ID":"2025-178C","EPOCH":"2026-03-05T23:48:43.373088","MEAN_MOTION":13.24418664,"ECCENTRICITY":0.00020708,"INCLINATION":86.4901,"RA_OF_ASC_NODE":48.2472,"ARG_OF_PERICENTER":79.4703,"MEAN_ANOMALY":280.6664,"EPHEMERIS_TYPE":0,"CLASSIFICATION_TYPE":"U","NORAD_CAT_ID":65230,"ELEMENT_SET_NO":999,"REV_AT_EPOCH":2665,"BSTAR":3.7643746e-5,"MEAN_MOTION_DOT":3.1e-7,"MEAN_MOTION_DDOT":0},{"OBJECT_NAME":"HULIANWANG DIGUI-71","OBJECT_ID":"2025-178D","EPOCH":"2026-03-05T23:37:48.443808","MEAN_MOTION":13.24419584,"ECCENTRICITY":0.00020144,"INCLINATION":86.496,"RA_OF_ASC_NODE":48.3644,"ARG_OF_PERICENTER":80.7894,"MEAN_ANOMALY":279.3467,"EPHEMERIS_TYPE":0,"CLASSIFICATION_TYPE":"U","NORAD_CAT_ID":65231,"ELEMENT_SET_NO":999,"REV_AT_EPOCH":2665,"BSTAR":8.2428427e-5,"MEAN_MOTION_DOT":5.0e-7,"MEAN_MOTION_DDOT":0},{"OBJECT_NAME":"HULIANWANG DIGUI-72","OBJECT_ID":"2025-178E","EPOCH":"2026-03-05T23:26:52.022400","MEAN_MOTION":13.24420034,"ECCENTRICITY":0.0002023,"INCLINATION":86.4943,"RA_OF_ASC_NODE":48.3249,"ARG_OF_PERICENTER":81.6914,"MEAN_ANOMALY":278.4449,"EPHEMERIS_TYPE":0,"CLASSIFICATION_TYPE":"U","NORAD_CAT_ID":65232,"ELEMENT_SET_NO":999,"REV_AT_EPOCH":2665,"BSTAR":9.6358232e-5,"MEAN_MOTION_DOT":5.6e-7,"MEAN_MOTION_DDOT":0},{"OBJECT_NAME":"HULIANWANG DIGUI-73","OBJECT_ID":"2025-187A","EPOCH":"2026-03-05T21:58:46.856640","MEAN_MOTION":13.29342539,"ECCENTRICITY":0.00010394,"INCLINATION":50.0037,"RA_OF_ASC_NODE":216.2551,"ARG_OF_PERICENTER":140.7744,"MEAN_ANOMALY":219.3203,"EPHEMERIS_TYPE":0,"CLASSIFICATION_TYPE":"U","NORAD_CAT_ID":65305,"ELEMENT_SET_NO":999,"REV_AT_EPOCH":2596,"BSTAR":8.1450948e-5,"MEAN_MOTION_DOT":-8.6e-7,"MEAN_MOTION_DDOT":0},{"OBJECT_NAME":"HULIANWANG DIGUI-74","OBJECT_ID":"2025-187B","EPOCH":"2026-03-05T21:34:41.831328","MEAN_MOTION":13.29342994,"ECCENTRICITY":0.00010428,"INCLINATION":50.008,"RA_OF_ASC_NODE":216.2346,"ARG_OF_PERICENTER":141.4851,"MEAN_ANOMALY":218.6096,"EPHEMERIS_TYPE":0,"CLASSIFICATION_TYPE":"U","NORAD_CAT_ID":65306,"ELEMENT_SET_NO":999,"REV_AT_EPOCH":2596,"BSTAR":5.2652761e-5,"MEAN_MOTION_DOT":-1.0e-6,"MEAN_MOTION_DDOT":0},{"OBJECT_NAME":"HULIANWANG DIGUI-75","OBJECT_ID":"2025-187C","EPOCH":"2026-03-05T22:58:59.179296","MEAN_MOTION":13.29342023,"ECCENTRICITY":0.00010379,"INCLINATION":50.0072,"RA_OF_ASC_NODE":215.8665,"ARG_OF_PERICENTER":139.607,"MEAN_ANOMALY":220.488,"EPHEMERIS_TYPE":0,"CLASSIFICATION_TYPE":"U","NORAD_CAT_ID":65307,"ELEMENT_SET_NO":999,"REV_AT_EPOCH":2597,"BSTAR":6.8675148e-5,"MEAN_MOTION_DOT":-9.2e-7,"MEAN_MOTION_DDOT":0},{"OBJECT_NAME":"HULIANWANG DIGUI-76","OBJECT_ID":"2025-187D","EPOCH":"2026-03-05T22:35:12.205536","MEAN_MOTION":13.29339358,"ECCENTRICITY":0.00010302,"INCLINATION":49.9996,"RA_OF_ASC_NODE":216.3191,"ARG_OF_PERICENTER":137.9133,"MEAN_ANOMALY":222.1818,"EPHEMERIS_TYPE":0,"CLASSIFICATION_TYPE":"U","NORAD_CAT_ID":65308,"ELEMENT_SET_NO":999,"REV_AT_EPOCH":2596,"BSTAR":8.5704054e-5,"MEAN_MOTION_DOT":-8.4e-7,"MEAN_MOTION_DDOT":0},{"OBJECT_NAME":"HULIANWANG DIGUI-77","OBJECT_ID":"2025-187E","EPOCH":"2026-03-05T22:22:57.700128","MEAN_MOTION":13.29341216,"ECCENTRICITY":0.00010703,"INCLINATION":50.003,"RA_OF_ASC_NODE":216.329,"ARG_OF_PERICENTER":138.3369,"MEAN_ANOMALY":221.7585,"EPHEMERIS_TYPE":0,"CLASSIFICATION_TYPE":"U","NORAD_CAT_ID":65309,"ELEMENT_SET_NO":999,"REV_AT_EPOCH":2596,"BSTAR":6.2826361e-5,"MEAN_MOTION_DOT":-9.5e-7,"MEAN_MOTION_DDOT":0},{"OBJECT_NAME":"HULIANWANG DIGUI-78","OBJECT_ID":"2025-187F","EPOCH":"2026-03-05T21:22:48.888768","MEAN_MOTION":13.29341713,"ECCENTRICITY":0.00010212,"INCLINATION":50.0097,"RA_OF_ASC_NODE":216.2177,"ARG_OF_PERICENTER":141.3897,"MEAN_ANOMALY":218.7049,"EPHEMERIS_TYPE":0,"CLASSIFICATION_TYPE":"U","NORAD_CAT_ID":65310,"ELEMENT_SET_NO":999,"REV_AT_EPOCH":2596,"BSTAR":6.0723901e-5,"MEAN_MOTION_DOT":-9.6e-7,"MEAN_MOTION_DDOT":0},{"OBJECT_NAME":"HULIANWANG DIGUI-79","OBJECT_ID":"2025-187G","EPOCH":"2026-03-05T22:46:47.493984","MEAN_MOTION":13.29343124,"ECCENTRICITY":0.00010281,"INCLINATION":50.0026,"RA_OF_ASC_NODE":216.407,"ARG_OF_PERICENTER":138.1955,"MEAN_ANOMALY":221.8996,"EPHEMERIS_TYPE":0,"CLASSIFICATION_TYPE":"U","NORAD_CAT_ID":65311,"ELEMENT_SET_NO":999,"REV_AT_EPOCH":2596,"BSTAR":6.2664041e-5,"MEAN_MOTION_DOT":-9.5e-7,"MEAN_MOTION_DDOT":0},{"OBJECT_NAME":"HULIANWANG DIGUI-80","OBJECT_ID":"2025-187H","EPOCH":"2026-03-05T22:10:53.365728","MEAN_MOTION":13.29341317,"ECCENTRICITY":0.00010609,"INCLINATION":50.0017,"RA_OF_ASC_NODE":216.2639,"ARG_OF_PERICENTER":138.4593,"MEAN_ANOMALY":221.636,"EPHEMERIS_TYPE":0,"CLASSIFICATION_TYPE":"U","NORAD_CAT_ID":65312,"ELEMENT_SET_NO":999,"REV_AT_EPOCH":2596,"BSTAR":7.951916e-5,"MEAN_MOTION_DOT":-8.7e-7,"MEAN_MOTION_DDOT":0}]
