HULIANWANG DIGUI-65     
1 65171U 25174H   26064.90132638  .00000051  00000+0  84541-4 0  9990
2 65171  86.4843 286.7968 0001229  88.6143 271.5132 13.24422368 27112
HULIANWANG DIGUI-66     
1 65172U 25174J   26064.96934447  .00000064  00000+0  11579-3 0  9999
2 65172  86.4878 286.8402 0001272  90.7851 269.3428 13.24422034 27127
HULIANWANG DIGUI-67     
1 65173U 25174K   26064.90893769  .00000041  00000+0  61665-4 0  9992
2 65173  86.4890 286.8943 0001265  88.8227 271.3052 13.24421612 27081
HULIANWANG DIGUI-68     
1 65228U 25178A   26064.93146115  .00000015  00000+0  13686-5 0  9998
2 65228  86.4942  48.3642 0002026  79.7015 280.4348 13.24423868 26642
HULIANWANG DIGUI-69     
1 65229U 25178B   26064.92421979  .00000018  00000+0  72154-5 0  9990
2 65229  86.4962  48.4017 0001962  80.9800 279.1556 13.24417706 26646
HULIANWANG DIGUI-70     
1 65230U 25178C   26064.99216867  .00000031  00000+0  37644-4 0  9996
2 65230  86.4901  48.2472 0002070  79.4703 280.6664 13.24418664 26652
HULIANWANG DIGUI-71     
1 65231U 25178D   26064.98458847  .00000050  00000+0  82428-4 0  9993
2 65231  86.4960  48.3644 0002014  80.7894 279.3467 13.24419584 26652
HULIANWANG DIGUI-72     
1 65232U 25178E   26064.97699100  .00000056  00000+0  96358-4 0  9995
2 65232  86.4943  48.3249 0002023  81.6914 278.4449 13.24420034 26650
HULIANWANG DIGUI-73     
1 65305U 25187A   26064.91582010 -.00000086  00000+0  81451-4 0  9993
2 65305  50.0037 216.2551 0001039 140.7744 219.3203 13.29342539 25961
HULIANWANG DIGUI-74     
1 65306U 25187B   26064.89909527 -.00000100  00000+0  52653-4 0  9996
2 65306  50.0080 216.2346 0001042 141.4851 218.6096 13.29342994 25960
HULIANWANG DIGUI-75     
1 65307U 25187C   26064.95762939 -.00000092  00000+0  68675-4 0  9999
2 65307  50.0072 215.8665 0001037 139.6070 220.4880 13.29342023 25973
HULIANWANG DIGUI-76     
1 65308U 25187D   26064.94111349 -.00000084  00000+0  85704-4 0  9995
2 65308  49.9996 216.3191 0001030 137.9133 222.1818 13.29339358 25966
HULIANWANG DIGUI-77     
1 65309U 25187E   26064.93261227 -.00000095  00000+0  62826-4 0  9998
2 65309  50.0030 216.3290 0001070 138.3369 221.7585 13.29341216 25961
HULIANWANG DIGUI-78     
1 65310U 25187F   26064.89084362 -.00000096  00000+0  60724-4 0  9994
2 65310  50.0097 216.2177 0001021 141.3897 218.7049 13.29341713 25968
HULIANWANG DIGUI-79     
1 65311U 25187G   26064.94916081 -.00000095  00000+0  62664-4 0  9997
2 65311  50.0026 216.4070 0001028 138.1955 221.8996 13.29343124 25965
HULIANWANG DIGUI-80     
1 65312U 25187H   26064.92422877 -.00000087  00000+0  79519-4 0  9999
2 65312  50.0017 216.2639 0001060 138.4593 221.6360 13.29341317 25967
